start=new Date('2023-03-07T00:00:00.000Z').valueOf();
sats=[{"BSTAR":"-0.00099691000000","OBJECT_ID":"2022-045Y","TLE_LINE2":"2 52353  53.2153  92.3626 0001495  93.8710 266.2453 15.08828409 49886","PERIOD":"95.438","TIME_SYSTEM":"UTC","RCS_SIZE":"LARGE","GP_ID":"227628686","MEAN_ANOMALY":"266.2453","NORAD_CAT_ID":"52353","APOAPSIS":"540.815","CENTER_NAME":"EARTH","FILE":"3853141","SEMIMAJOR_AXIS":"6917.916","OBJECT_NAME":"STARLINK-3807","ELEMENT_SET_NO":"999","REV_AT_EPOCH":"4988","COUNTRY_CODE":"US","RA_OF_ASC_NODE":"92.3626","PERIAPSIS":"538.747","LAUNCH_DATE":"2022-04-29","CLASSIFICATION_TYPE":"U","MEAN_MOTION_DDOT":"0.0000000000000","TLE_LINE1":"1 52353U 22045Y   23065.76981507 -.00016114  00000-0 -99691-3 0  9992","MEAN_MOTION":"15.08828409","MEAN_ELEMENT_THEORY":"SGP4","EPOCH":"2023-03-06T18:28:32.022048","ARG_OF_PERICENTER":"93.8710","SITE":"AFETR","DECAY_DATE":null,"EPHEMERIS_TYPE":"0","MEAN_MOTION_DOT":"-0.00016114","INCLINATION":"53.2153","OBJECT_TYPE":"PAYLOAD","REF_FRAME":"TEME","ECCENTRICITY":"0.00014950"},{"PERIAPSIS":"538.541","MEAN_MOTION_DDOT":"0.0000000000000","CLASSIFICATION_TYPE":"U","LAUNCH_DATE":"2022-04-29","MEAN_ELEMENT_THEORY":"SGP4","MEAN_MOTION":"15.08821582","EPOCH":"2023-03-06T08:29:45.352896","TLE_LINE1":"1 52354U 22045Z   23065.35399714  .00005430  00000-0  35917-3 0  9999","SITE":"AFETR","DECAY_DATE":null,"ARG_OF_PERICENTER":"111.2383","OBJECT_TYPE":"PAYLOAD","INCLINATION":"53.2138","MEAN_MOTION_DOT":"0.00005430","EPHEMERIS_TYPE":"0","ECCENTRICITY":"0.00018230","REF_FRAME":"TEME","OBJECT_ID":"2022-045Z","BSTAR":"0.00035917000000","RCS_SIZE":"LARGE","TIME_SYSTEM":"UTC","PERIOD":"95.439","TLE_LINE2":"2 52354  53.2138  94.2289 0001823 111.2383 248.8804 15.08821582 49827","MEAN_ANOMALY":"248.8804","GP_ID":"227626937","SEMIMAJOR_AXIS":"6917.937","FILE":"3853141","CENTER_NAME":"EARTH","APOAPSIS":"541.063","NORAD_CAT_ID":"52354","OBJECT_NAME":"STARLINK-3876","ELEMENT_SET_NO":"999","COUNTRY_CODE":"US","REV_AT_EPOCH":"4982","RA_OF_ASC_NODE":"94.2289"},{"PERIAPSIS":"538.429","MEAN_MOTION_DDOT":"0.0000000000000","CLASSIFICATION_TYPE":"U","LAUNCH_DATE":"2022-04-29","DECAY_DATE":null,"SITE":"AFETR","ARG_OF_PERICENTER":"75.8306","MEAN_MOTION":"15.08847359","MEAN_ELEMENT_THEORY":"SGP4","EPOCH":"2023-03-06T18:23:14.235936","TLE_LINE1":"1 52355U 22045AA  23065.76613699  .00007234  00000-0  47204-3 0  9992","ECCENTRICITY":"0.00018710","REF_FRAME":"TEME","INCLINATION":"53.2151","MEAN_MOTION_DOT":"0.00007234","OBJECT_TYPE":"PAYLOAD","EPHEMERIS_TYPE":"0","TIME_SYSTEM":"UTC","RCS_SIZE":"LARGE","TLE_LINE2":"2 52355  53.2151  92.3787 0001871  75.8306 284.2894 15.08847359 49887","PERIOD":"95.437","OBJECT_ID":"2022-045AA","BSTAR":"0.00047204000000","FILE":"3853141","SEMIMAJOR_AXIS":"6917.858","NORAD_CAT_ID":"52355","CENTER_NAME":"EARTH","APOAPSIS":"541.017","MEAN_ANOMALY":"284.2894","GP_ID":"227627187","ELEMENT_SET_NO":"999","OBJECT_NAME":"STARLINK-3877","RA_OF_ASC_NODE":"92.3787","REV_AT_EPOCH":"4988","COUNTRY_CODE":"US"},{"ECCENTRICITY":"0.00016850","REF_FRAME":"TEME","MEAN_MOTION_DOT":"0.00012305","INCLINATION":"53.2146","OBJECT_TYPE":"PAYLOAD","EPHEMERIS_TYPE":"0","SITE":"AFETR","DECAY_DATE":null,"ARG_OF_PERICENTER":"106.9840","EPOCH":"2023-03-06T08:35:01.677120","MEAN_MOTION":"15.08854072","MEAN_ELEMENT_THEORY":"SGP4","TLE_LINE1":"1 52356U 22045AB  23065.35765830  .00012305  00000-0  78955-3 0  9995","MEAN_MOTION_DDOT":"0.0000000000000","CLASSIFICATION_TYPE":"U","LAUNCH_DATE":"2022-04-29","PERIAPSIS":"538.537","RA_OF_ASC_NODE":"94.2393","COUNTRY_CODE":"US","REV_AT_EPOCH":"4982","ELEMENT_SET_NO":"999","OBJECT_NAME":"STARLINK-3801","FILE":"3853141","SEMIMAJOR_AXIS":"6917.837","NORAD_CAT_ID":"52356","CENTER_NAME":"EARTH","APOAPSIS":"540.868","MEAN_ANOMALY":"253.1337","GP_ID":"227628436","TIME_SYSTEM":"UTC","RCS_SIZE":"LARGE","TLE_LINE2":"2 52356  53.2146  94.2393 0001685 106.9840 253.1337 15.08854072 49829","PERIOD":"95.437","OBJECT_ID":"2022-045AB","BSTAR":"0.00078955000000"},{"OBJECT_NAME":"STARLINK-3821","ELEMENT_SET_NO":"999","COUNTRY_CODE":"US","REV_AT_EPOCH":"4985","RA_OF_ASC_NODE":"93.3049","OBJECT_ID":"2022-045AC","BSTAR":"0.00101970000000","TIME_SYSTEM":"UTC","RCS_SIZE":"LARGE","TLE_LINE2":"2 52357  53.2141  93.3049 0001496  98.2145 261.9017 15.08868321 49851","PERIOD":"95.436","MEAN_ANOMALY":"261.9017","GP_ID":"227628188","FILE":"3853141","SEMIMAJOR_AXIS":"6917.794","NORAD_CAT_ID":"52357","APOAPSIS":"540.694","CENTER_NAME":"EARTH","MEAN_MOTION":"15.08868321","MEAN_ELEMENT_THEORY":"SGP4","EPOCH":"2023-03-06T13:26:28.402944","TLE_LINE1":"1 52357U 22045AC  23065.56005096  .00015990  00000-0  10197-2 0  9996","SITE":"AFETR","DECAY_DATE":null,"ARG_OF_PERICENTER":"98.2145","MEAN_MOTION_DOT":"0.00015990","INCLINATION":"53.2141","OBJECT_TYPE":"PAYLOAD","EPHEMERIS_TYPE":"0","REF_FRAME":"TEME","ECCENTRICITY":"0.00014960","PERIAPSIS":"538.624","MEAN_MOTION_DDOT":"0.0000000000000","CLASSIFICATION_TYPE":"U","LAUNCH_DATE":"2022-04-29"},{"PERIAPSIS":"538.742","MEAN_MOTION_DDOT":"0.0000000000000","LAUNCH_DATE":"2022-04-29","CLASSIFICATION_TYPE":"U","DECAY_DATE":null,"SITE":"AFETR","ARG_OF_PERICENTER":"91.8688","MEAN_ELEMENT_THEORY":"SGP4","MEAN_MOTION":"15.08841585","EPOCH":"2023-03-06T19:21:31.595616","TLE_LINE1":"1 52358U 22045AD  23065.80661569 -.00001218  00000-0 -58434-4 0  9995","REF_FRAME":"TEME","ECCENTRICITY":"0.00014440","OBJECT_TYPE":"PAYLOAD","MEAN_MOTION_DOT":"-0.00001218","INCLINATION":"53.2143","EPHEMERIS_TYPE":"0","RCS_SIZE":"LARGE","TIME_SYSTEM":"UTC","PERIOD":"95.437","TLE_LINE2":"2 52358  53.2143  92.1959 0001444  91.8688 268.2469 15.08841585 49893","OBJECT_ID":"2022-045AD","BSTAR":"-0.00005843400000","SEMIMAJOR_AXIS":"6917.876","FILE":"3853141","CENTER_NAME":"EARTH","APOAPSIS":"540.739","NORAD_CAT_ID":"52358","MEAN_ANOMALY":"268.2469","GP_ID":"227627437","ELEMENT_SET_NO":"999","OBJECT_NAME":"STARLINK-3837","RA_OF_ASC_NODE":"92.1959","REV_AT_EPOCH":"4989","COUNTRY_CODE":"US"},{"LAUNCH_DATE":"2022-04-29","CLASSIFICATION_TYPE":"U","MEAN_MOTION_DDOT":"0.0000000000000","PERIAPSIS":"538.149","REF_FRAME":"TEME","ECCENTRICITY":"0.00021570","EPHEMERIS_TYPE":"0","OBJECT_TYPE":"PAYLOAD","MEAN_MOTION_DOT":"0.00016904","INCLINATION":"53.2168","ARG_OF_PERICENTER":"91.7503","SITE":"AFETR","DECAY_DATE":null,"TLE_LINE1":"1 52359U 22045AE  23065.55732837  .00016904  00000-0  10766-2 0  9995","EPOCH":"2023-03-06T13:22:33.171168","MEAN_MOTION":"15.08874109","MEAN_ELEMENT_THEORY":"SGP4","APOAPSIS":"541.133","CENTER_NAME":"EARTH","NORAD_CAT_ID":"52359","SEMIMAJOR_AXIS":"6917.776","FILE":"3853141","GP_ID":"227627687","MEAN_ANOMALY":"268.3736","PERIOD":"95.435","TLE_LINE2":"2 52359  53.2168  93.3223 0002157  91.7503 268.3736 15.08874109 49857","RCS_SIZE":"LARGE","TIME_SYSTEM":"UTC","BSTAR":"0.00107660000000","OBJECT_ID":"2022-045AE","RA_OF_ASC_NODE":"93.3223","COUNTRY_CODE":"US","REV_AT_EPOCH":"4985","ELEMENT_SET_NO":"999","OBJECT_NAME":"STARLINK-3853"},{"PERIAPSIS":"538.592","LAUNCH_DATE":"2022-04-29","CLASSIFICATION_TYPE":"U","MEAN_MOTION_DDOT":"0.0000000000000","ARG_OF_PERICENTER":"98.0271","SITE":"AFETR","DECAY_DATE":null,"TLE_LINE1":"1 52360U 22045AF  23065.73394026 -.00007572  00000-0 -45833-3 0  9998","EPOCH":"2023-03-06T17:36:52.438464","MEAN_MOTION":"15.08827239","MEAN_ELEMENT_THEORY":"SGP4","ECCENTRICITY":"0.00017240","REF_FRAME":"TEME","EPHEMERIS_TYPE":"0","INCLINATION":"53.2150","MEAN_MOTION_DOT":"-0.00007572","OBJECT_TYPE":"PAYLOAD","TLE_LINE2":"2 52360  53.2150  82.5229 0001724  98.0271 262.0917 15.08827239 50000","PERIOD":"95.438","TIME_SYSTEM":"UTC","RCS_SIZE":"LARGE","BSTAR":"-0.00045833000000","OBJECT_ID":"2022-045AF","NORAD_CAT_ID":"52360","APOAPSIS":"540.977","CENTER_NAME":"EARTH","FILE":"3853141","SEMIMAJOR_AXIS":"6917.919","GP_ID":"227627938","MEAN_ANOMALY":"262.0917","ELEMENT_SET_NO":"999","OBJECT_NAME":"STARLINK-3824","RA_OF_ASC_NODE":"82.5229","COUNTRY_CODE":"US","REV_AT_EPOCH":"5000"},{"MEAN_MOTION_DDOT":"0.0000000000000","CLASSIFICATION_TYPE":"U","LAUNCH_DATE":"2022-04-29","PERIAPSIS":"538.490","OBJECT_TYPE":"PAYLOAD","MEAN_MOTION_DOT":"0.00022453","INCLINATION":"53.2154","EPHEMERIS_TYPE":"0","ECCENTRICITY":"0.00016730","REF_FRAME":"TEME","MEAN_ELEMENT_THEORY":"SGP4","MEAN_MOTION":"15.08872193","EPOCH":"2023-03-06T13:10:34.608288","TLE_LINE1":"1 52361U 22045AG  23065.54901167  .00022453  00000-0  14231-2 0  9998","SITE":"AFETR","DECAY_DATE":null,"ARG_OF_PERICENTER":"94.3056","MEAN_ANOMALY":"265.8127","GP_ID":"227628687","SEMIMAJOR_AXIS":"6917.782","FILE":"3853141","APOAPSIS":"540.804","CENTER_NAME":"EARTH","NORAD_CAT_ID":"52361","OBJECT_ID":"2022-045AG","BSTAR":"0.00142310000000","RCS_SIZE":"LARGE","TIME_SYSTEM":"UTC","PERIOD":"95.436","TLE_LINE2":"2 52361  53.2154  93.3513 0001673  94.3056 265.8127 15.08872193 49858","REV_AT_EPOCH":"4985","COUNTRY_CODE":"US","RA_OF_ASC_NODE":"93.3513","OBJECT_NAME":"STARLINK-3728","ELEMENT_SET_NO":"999"},{"TLE_LINE1":"1 52362U 22045AH  23065.53151899  .00023158  00000-0  14663-2 0  9999","EPOCH":"2023-03-06T12:45:23.240736","MEAN_MOTION":"15.08891427","MEAN_ELEMENT_THEORY":"SGP4","ARG_OF_PERICENTER":"114.1553","SITE":"AFETR","DECAY_DATE":null,"EPHEMERIS_TYPE":"0","MEAN_MOTION_DOT":"0.00023158","INCLINATION":"53.2151","OBJECT_TYPE":"PAYLOAD","ECCENTRICITY":"0.00017360","REF_FRAME":"TEME","PERIAPSIS":"538.387","LAUNCH_DATE":"2022-04-29","CLASSIFICATION_TYPE":"U","MEAN_MOTION_DDOT":"0.0000000000000","OBJECT_NAME":"STARLINK-3848","ELEMENT_SET_NO":"999","REV_AT_EPOCH":"4998","COUNTRY_CODE":"US","RA_OF_ASC_NODE":"83.4291","BSTAR":"0.00146630000000","OBJECT_ID":"2022-045AH","TLE_LINE2":"2 52362  53.2151  83.4291 0001736 114.1553 245.9621 15.08891427 49985","PERIOD":"95.434","TIME_SYSTEM":"UTC","RCS_SIZE":"LARGE","GP_ID":"227626938","MEAN_ANOMALY":"245.9621","NORAD_CAT_ID":"52362","CENTER_NAME":"EARTH","APOAPSIS":"540.789","FILE":"3853141","SEMIMAJOR_AXIS":"6917.723"}];
